[{"OBJECT_NAME":"PADRE","OBJECT_ID":"2025-135AH","EPOCH":"2026-03-09T21:49:33.195936","MEAN_MOTION":14.92114701,"ECCENTRICITY":0.00013867,"INCLINATION":97.759,"RA_OF_ASC_NODE":183.9613,"ARG_OF_PERICENTER":187.9932,"MEAN_ANOMALY":172.1266,"EPHEMERIS_TYPE":0,"CLASSIFICATION_TYPE":"U","NORAD_CAT_ID":64559,"ELEMENT_SET_NO":999,"REV_AT_EPOCH":3904,"BSTAR":0.00028627052,"MEAN_MOTION_DOT":2.854e-5,"MEAN_MOTION_DDOT":0},{"OBJECT_NAME":"CZ-4B DEB","OBJECT_ID":"1999-057SK","EPOCH":"2026-03-06T05:57:49.055616","MEAN_MOTION":14.76602797,"ECCENTRICITY":0.00698326,"INCLINATION":98.5391,"RA_OF_ASC_NODE":176.1702,"ARG_OF_PERICENTER":278.2505,"MEAN_ANOMALY":111.4922,"EPHEMERIS_TYPE":0,"CLASSIFICATION_TYPE":"U","NORAD_CAT_ID":35331,"ELEMENT_SET_NO":999,"REV_AT_EPOCH":64304,"BSTAR":0.0017455011,"MEAN_MOTION_DOT":0.00012645,"MEAN_MOTION_DDOT":0}]
